OBJECT_NAME,OBJECT_ID,EPOCH,MEAN_MOTION,ECCENTRICITY,INCLINATION,RA_OF_ASC_NODE,ARG_OF_PERICENTER,MEAN_ANOMALY,EPHEMERIS_TYPE,CLASSIFICATION_TYPE,NORAD_CAT_ID,ELEMENT_SET_NO,REV_AT_EPOCH,BSTAR,MEAN_MOTION_DOT,MEAN_MOTION_DDOT
OSCAR 7 (AO-7),1974-089B,2026-07-12T06:44:12.175872,12.53698497,.00126573,101.9904,206.7888,83.7771,344.0955,0,U,7530,999,36366,.1147545E-3,-.28E-6,0
PHASE 3B (AO-10),1983-058B,2026-07-09T16:55:32.549376,2.05870648,.60033527,25.9319,215.8523,121.8543,310.3469,0,U,14129,999,29595,0,.106E-5,0
UOSAT 2 (UO-11),1984-021B,2026-07-11T20:29:45.562848,14.90844080,.00091874,97.8073,158.1560,100.6765,259.5488,0,U,14781,999,26080,.9251145E-4,.855E-5,0
LUSAT (LO-19),1990-005G,2026-07-12T00:28:10.714944,14.34130163,.00124262,98.8847,215.5087,130.0695,230.1580,0,U,20442,999,90595,.34039423E-4,.49E-6,0
EYESAT A (AO-27),1993-061C,2026-07-12T04:08:14.999712,14.30948567,.00089239,98.6869,260.5755,34.2140,325.9616,0,U,22825,999,71057,.29729541E-4,.34E-6,0
ITAMSAT (IO-26),1993-061D,2026-07-12T03:27:51.858144,14.31376147,.00091492,98.6817,260.4674,18.0358,342.1148,0,U,22826,999,71088,.28178451E-4,.3E-6,0
RADIO ROSTO (RS15),1994-085A,2026-07-12T05:09:35.421984,11.27583511,.01568004,64.8161,262.7407,359.2580,0.8090,0,U,23439,999,29872,.49439038E-3,-.25E-6,0
JAS-2 (FO-29),1996-046B,2026-07-12T00:06:50.099328,13.53275381,.03504964,98.5221,38.4749,32.2062,329.9970,0,U,24278,999,47652,.55356308E-4,.2E-6,0
TECHSAT 1B (GO-32),1998-043D,2026-07-11T22:19:44.059584,14.24432954,.0002096,99.0082,186.3145,119.6916,240.4471,0,U,25397,999,45485,.28845E-4,.2E-6,0
ISS (ZARYA),1998-067A,2026-07-12T03:41:07.946016,15.48987212,.00067009,51.6303,176.5328,285.7692,74.2557,0,U,25544,999,57562,.96681198E-4,.4878E-4,0
PCSAT (NO-44),2001-043C,2026-07-11T22:54:16.334208,14.31964242,.0005952,67.0492,180.2118,266.3271,93.7150,0,U,26931,999,29399,.48416E-4,.47E-6,0
SAUDISAT 1C (SO-50),2002-058C,2026-07-11T20:02:33.925632,14.83094671,.00746227,64.5517,52.7226,257.8961,101.3778,0,U,27607,999,26811,.65677356E-4,.404E-5,0
CUTE-1 (CO-55),2003-031E,2026-07-12T06:08:45.429504,14.24350376,.00107688,98.6742,201.5000,110.2037,250.0301,0,U,27844,999,19524,.87285046E-4,.158E-5,0
CUBESAT XI-IV (CO-57),2003-031J,2026-07-11T13:18:12.441888,14.23633286,.0010408,98.6772,200.4999,128.9651,231.2457,0,U,27848,999,19484,.76240362E-4,.13E-5,0
MOZHAETS 4 (RS22),2003-042A,2026-07-12T08:22:18.255360,14.73509415,.00109625,98.3476,18.4199,182.2562,298.3988,0,U,27939,999,21925,.10494853E-4,.14E-6,0
CUBESAT XI-V,2005-043F,2026-07-11T09:17:30.194592,14.72696464,.00151315,98.3011,348.5214,126.3821,233.8784,0,U,28895,999,10531,.13420163E-3,.804E-5,0
CUTE-1.7+APD II (CO-65),2008-021C,2026-07-12T04:07:50.710944,15.09682301,.00072854,97.8286,175.1161,311.6931,48.3674,0,U,32785,999,98896,.19865896E-3,.3133E-4,0
SEEDS II (CO-66),2008-021J,2026-07-11T13:05:02.149728,15.33584480,.00026852,97.7522,191.6211,165.1600,194.9721,0,U,32791,999,99102,.34002086E-3,.1096E-3,0
YUBILEINY (RS30),2008-025A,2026-07-12T04:58:58.411200,12.43180956,.00185606,82.5054,339.8750,255.9580,103.9436,0,U,32953,999,82280,.5404341E-3,.85E-6,0
KKS-1 (KISEKI),2009-002H,2026-07-12T05:14:44.996640,14.83184935,.00071798,98.1177,116.0575,199.1633,160.9311,0,U,33499,999,93990,.89586224E-4,.676E-5,0
SWISSCUBE,2009-051B,2026-07-12T05:01:01.203744,14.62527427,.00077152,98.4012,101.5313,127.0520,233.1388,0,U,35932,999,89281,.10865015E-3,.502E-5,0
BEESAT-1,2009-051C,2026-07-11T16:24:52.965504,14.61758535,.00059254,98.3940,100.5811,139.0777,221.0870,0,U,35933,999,89276,.93456424E-4,.417E-5,0
ITUPSAT1,2009-051E,2026-07-11T23:17:18.975264,14.60475983,.0007861,98.4023,100.0372,152.4089,207.7529,0,U,35935,999,89235,.90105677E-4,.388E-5,0
XIWANG-1 (HOPE-1),2009-072B,2026-07-12T07:45:58.258080,13.16438861,.00074612,100.4028,146.7552,171.2603,188.8641,0,U,36122,999,79631,-.30158562E-3,-.16E-5,0
O/OREOS (USA 219),2010-062C,2026-07-11T23:22:38.985312,14.93844125,.00138072,71.9695,24.1866,11.3955,348.7525,0,U,37224,999,12034,.11920884E-3,.1204E-4,0
JUGNU,2011-058B,2026-07-12T01:41:53.186208,14.13782974,.00184678,19.9591,157.2468,351.9537,74.6963,0,U,37839,999,76255,.45779251E-4,.355E-5,0
SRMSAT,2011-058D,2026-07-12T05:43:42.959424,14.11580711,.00118539,19.9714,267.8422,118.8974,271.3920,0,U,37841,999,76136,.45878902E-4,.35E-5,0
STRAND-1,2013-009E,2026-07-11T23:31:54.290208,14.37177734,.00092395,98.3932,12.6059,149.9394,210.2325,0,U,39090,999,70062,.66459895E-4,.155E-5,0
ZACUBE-1 (TSHEPISOSAT),2013-066B,2026-07-11T22:27:03.644640,15.01320163,.0043834,97.8011,155.3951,165.6614,194.5865,0,U,39417,999,68444,.11431E-3,.1437E-4,0
GOMX-1,2013-066Q,2026-07-12T07:28:33.064320,14.69538478,.01285439,97.6477,32.1889,357.4914,2.5632,0,U,39430,999,67360,.13862496E-3,.881E-5,0
